{
  "norad_id": 65869,
  "name": "STARLINK-35441",
  "history": [
    {
      "epoch": "2026-03-28T16:54:56.773728",
      "apogee_km": 475.7311440188978,
      "perigee_km": 474.6983439110827,
      "latitude_deg": -26.178511495277075,
      "longitude_deg": 114.56308191968128,
      "semi_major_axis_km": 6853.35174396499,
      "eccentricity": 7.535e-05,
      "inclination_deg": 53.159,
      "raan_deg": 206.0855,
      "arg_perigee_deg": 102.5655,
      "mean_anomaly_deg": 257.543,
      "mean_motion_rev_day": 15.30200109
    }
  ]
}